$$SOE
2460154.500000000, A.D. 2023-Jul-29 00:00:00.0000, 1.176801728911088E+08, -2.950304113457650E+08, -2.856703036764984E+07,
2460161.500000000, A.D. 2023-Aug-05 00:00:00.0000, 1.291082339559013E+08, -2.896631590972314E+08, -2.947389804360771E+07,
2460168.500000000, A.D. 2023-Aug-12 00:00:00.0000, 1.403422897007929E+08, -2.838607350431035E+08, -3.033648307571337E+07,
2460175.500000000, A.D. 2023-Aug-19 00:00:00.0000, 1.513646836500890E+08, -2.776302815486777E+08, -3.115332117909098E+07,
2460182.500000000, A.D. 2023-Aug-26 00:00:00.0000, 1.621580058311570E+08, -2.709797463997023E+08, -3.192301817723396E+07,
2460189.500000000, A.D. 2023-Sep-02 00:00:00.0000, 1.727051358177784E+08, -2.639178749163832E+08, -3.264425408983783E+07,
2460196.500000000, A.D. 2023-Sep-09 00:00:00.0000, 1.829892857081566E+08, -2.564541993808972E+08, -3.331578707173374E+07,
2460203.500000000, A.D. 2023-Sep-16 00:00:00.0000, 1.929940429816287E+08, -2.485990258132725E+08, -3.393645719853228E+07,
2460210.500000000, A.D. 2023-Sep-23 00:00:00.0000, 2.027034134267287E+08, -2.403634178058811E+08, -3.450519008952931E+07,
2460217.500000000, A.D. 2023-Sep-30 00:00:00.0000, 2.121018635754670E+08, -2.317591762468109E+08, -3.502100021622890E+07,
2460224.500000000, A.D. 2023-Oct-07 00:00:00.0000, 2.211743600613194E+08, -2.227988155153204E+08, -3.548299370268425E+07,
2460231.500000000, A.D. 2023-Oct-14 00:00:00.0000, 2.299064067130216E+08, -2.134955395189372E+08, -3.589037096256839E+07,
2460238.500000000, A.D. 2023-Oct-21 00:00:00.0000, 2.382840823932757E+08, -2.038632160473302E+08, -3.624242931888360E+07,
2460245.500000000, A.D. 2023-Oct-28 00:00:00.0000, 2.462940779481010E+08, -1.939163472867366E+08, -3.653856527415738E+07,
2460252.500000000, A.D. 2023-Nov-04 00:00:00.0000, 2.539237308147625E+08, -1.836700373911816E+08, -3.677827636475070E+07,
2460259.500000000, A.D. 2023-Nov-11 00:00:00.0000, 2.611610572739336E+08, -1.731399578547433E+08, -3.696116265203944E+07,
2460266.500000000, A.D. 2023-Nov-18 00:00:00.0000, 2.679947823870234E+08, -1.623423109111888E+08, -3.708692786570195E+07,
2460273.500000000, A.D. 2023-Nov-25 00:00:00.0000, 2.744143675286302E+08, -1.512937911172946E+08, -3.715538019640937E+07,
2460280.500000000, A.D. 2023-Dec-02 00:00:00.0000, 2.804100353963464E+08, -1.400115453256854E+08, -3.716643273660908E+07,
2460287.500000000, A.D. 2023-Dec-09 00:00:00.0000, 2.859727924458951E+08, -1.285131313140165E+08, -3.712010357909399E+07,
2460294.500000000, A.D. 2023-Dec-16 00:00:00.0000, 2.910944489258874E+08, -1.168164752732912E+08, -3.701651559860016E+07,
2460301.500000000, A.D. 2023-Dec-23 00:00:00.0000, 2.957676367729106E+08, -1.049398276880406E+08, -3.685589589491580E+07,
2460308.500000000, A.D. 2023-Dec-30 00:00:00.0000, 2.999858239697170E+08, -9.290171679177758E+07, -3.663857469560184E+07,
2460315.500000000, A.D. 2024-Jan-06 00:00:00.0000, 3.037433235543031E+08, -8.072090220156839E+07, -3.636498375822695E+07,
2460322.500000000, A.D. 2024-Jan-13 00:00:00.0000, 3.070353004247690E+08, -6.841633077704205E+07, -3.603565472131489E+07,
2460329.500000000, A.D. 2024-Jan-20 00:00:00.0000, 3.098577771602699E+08, -5.600709185182124E+07, -3.565121727674378E+07,
2460336.500000000, A.D. 2024-Jan-27 00:00:00.0000, 3.122076368531569E+08, -4.351237141697055E+07, -3.521239693963072E+07,
2460343.500000000, A.D. 2024-Feb-03 00:00:00.0000, 3.140826225688008E+08, -3.095140643314967E+07, -3.472001247141030E+07,
2460350.500000000, A.D. 2024-Feb-10 00:00:00.0000, 3.154813337741793E+08, -1.834343978288727E+07, -3.417497302436274E+07,
2460357.500000000, A.D. 2024-Feb-17 00:00:00.0000, 3.164032199561014E+08, -5.707676065331673E+06, -3.357827504003709E+07,
2460364.500000000, A.D. 2024-Feb-24 00:00:00.0000, 3.168485715648605E+08, 6.936761582737012E+06, -3.293099892521109E+07,
2460371.500000000, A.D. 2024-Mar-02 00:00:00.0000, 3.168185084292806E+08, 1.957087342151291E+07, -3.223430553332189E+07,
2460378.500000000, A.D. 2024-Mar-09 00:00:00.0000, 3.163149659134039E+08, 3.217582356289264E+07, -3.148943249270856E+07,
2460385.500000000, A.D. 2024-Mar-16 00:00:00.0000, 3.153406793499907E+08, 4.473297898309590E+07, -3.069769042542872E+07,
2460392.500000000, A.D. 2024-Mar-23 00:00:00.0000, 3.138991667915546E+08, 5.722394806361910E+07, -2.986045897921932E+07,
2460399.500000000, A.D. 2024-Mar-30 00:00:00.0000, 3.119947080020918E+08, 6.963061851922175E+07, -2.897918249270682E+07,
2460406.500000000, A.D. 2024-Apr-06 00:00:00.0000, 3.096323201268110E+08, 8.193519123906946E+07, -2.805536561782715E+07,
2460413.500000000, A.D. 2024-Apr-13 00:00:00.0000, 3.068177337637381E+08, 9.412021078358072E+07, -2.709056918036814E+07,
2460420.500000000, A.D. 2024-Apr-20 00:00:00.0000, 3.035573686577475E+08, 1.061685951423745E+08, -2.608640599445429E+07,
2460427.500000000, A.D. 2024-Apr-27 00:00:00.0000, 2.998583076793283E+08, 1.180636641361828E+08, -2.504453655916538E+07,
2460434.500000000, A.D. 2024-May-04 00:00:00.0000, 2.957282693524168E+08, 1.297891657151092E+08, -2.396666472299609E+07,
2460441.500000000, A.D. 2024-May-11 00:00:00.0000, 2.911755793362562E+08, 1.413293000217571E+08, -2.285453336455386E+07,
2460448.500000000, A.D. 2024-May-18 00:00:00.0000, 2.862091411009109E+08, 1.526687412318804E+08, -2.170992011196280E+07,
2460455.500000000, A.D. 2024-May-25 00:00:00.0000, 2.808384059777700E+08, 1.637926571802771E+08, -2.053463312011462E+07,
2460462.500000000, A.D. 2024-Jun-01 00:00:00.0000, 2.750733428073022E+08, 1.746867267477060E+08, -1.933050693228298E+07,
2460469.500000000, A.D. 2024-Jun-08 00:00:00.0000, 2.689244075961490E+08, 1.853371550275638E+08, -1.809939846628179E+07,
2460476.500000000, A.D. 2024-Jun-15 00:00:00.0000, 2.624025137415797E+08, 1.957306868596569E+08, -1.684318313133036E+07,
2460483.500000000, A.D. 2024-Jun-22 00:00:00.0000, 2.555190019540831E+08, 2.058546199494342E+08, -1.556375089833047E+07,
2460490.500000000, A.D. 2024-Jun-29 00:00:00.0000, 2.482856078758064E+08, 2.156968158146390E+08, -1.426300228583121E+07,
2460497.500000000, A.D. 2024-Jul-06 00:00:00.0000, 2.407144301648394E+08, 2.252457061650007E+08, -1.294284471487887E+07,
2460504.500000000, A.D. 2024-Jul-13 00:00:00.0000, 2.328179011052480E+08, 2.344902976103258E+08, -1.160518918831855E+07,
2460511.500000000, A.D. 2024-Jul-20 00:00:00.0000, 2.246087578492358E+08, 2.434201759240595E+08, -1.025194702367994E+07,
2460518.500000000, A.D. 2024-Jul-27 00:00:00.0000, 2.161000137213710E+08, 2.520255089903237E+08, -8.885026662093952E+06,
2460525.500000000, A.D. 2024-Aug-03 00:00:00.0000, 2.073049299367416E+08, 2.602970481504335E+08, -7.506330612342969E+06,
2460532.500000000, A.D. 2024-Aug-10 00:00:00.0000, 1.982369879686053E+08, 2.682261280371941E+08, -6.117752548071563E+06,
2460539.500000000, A.D. 2024-Aug-17 00:00:00.0000, 1.889098626733288E+08, 2.758046650126818E+08, -4.721174562189698E+06,
2460546.500000000, A.D. 2024-Aug-24 00:00:00.0000, 1.793373962518733E+08, 2.830251542818190E+08, -3.318464583376184E+06,
2460553.500000000, A.D. 2024-Aug-31 00:00:00.0000, 1.695335732061916E+08, 2.898806657150597E+08, -1.911473969955295E+06,
2460560.500000000, A.D. 2024-Sep-07 00:00:00.0000, 1.595124966912943E+08, 2.963648386019734E+08, -5.020353032213598E+05,
2460567.500000000, A.D. 2024-Sep-14 00:00:00.0000, 1.492883663788248E+08, 3.024718764256623E+08, 9.080396948578358E+05,
2460574.500000000, A.D. 2024-Sep-21 00:00:00.0000, 1.388754558251635E+08, 3.081965421538749E+08, 2.316962341420308E+06,
2460581.500000000, A.D. 2024-Sep-28 00:00:00.0000, 1.282880888614227E+08, 3.135341509013728E+08, 3.722969054841995E+06,
2460588.500000000, A.D. 2024-Oct-05 00:00:00.0000, 1.175406186825721E+08, 3.184805600604786E+08, 5.124322966703758E+06,
2460595.500000000, A.D. 2024-Oct-12 00:00:00.0000, 1.066474092837205E+08, 3.230321599625236E+08, 6.519315363504127E+06,
2460602.500000000, A.D. 2024-Oct-19 00:00:00.0000, 9.562281748805378E+07, 3.271858648719134E+08, 7.906267100971162E+06,
2460609.500000000, A.D. 2024-Oct-26 00:00:00.0000, 8.448117552348289E+07, 3.309391035842541E+08, 9.283529933423460E+06,
2460616.500000000, A.D. 2024-Nov-02 00:00:00.0000, 7.323677439182869E+07, 3.342898095508139E+08, 1.064948772759479E+07,
2460623.500000000, A.D. 2024-Nov-09 00:00:00.0000, 6.190384811014700E+07, 3.372364106168731E+08, 1.200255755910167E+07,
2460630.500000000, A.D. 2024-Nov-16 00:00:00.0000, 5.049655882972291E+07, 3.397778184371423E+08, 1.334119069479491E+07,
2460637.500000000, A.D. 2024-Nov-23 00:00:00.0000, 3.902898285640210E+07, 3.419134175773041E+08, 1.466387345844282E+07,
2460644.500000000, A.D. 2024-Nov-30 00:00:00.0000, 2.751509775480772E+07, 3.436430543139588E+08, 1.596912796321401E+07,
2460651.500000000, A.D. 2024-Dec-07 00:00:00.0000, 1.596877092802188E+07, 3.449670256053190E+08, 1.725551271309254E+07,
2460658.500000000, A.D. 2024-Dec-14 00:00:00.0000, 4.403748956602813E+06, 3.458860695058995E+08, 1.852162324245349E+07,
2460665.500000000, A.D. 2024-Dec-21 00:00:00.0000, -7.166354647065192E+06, 3.464013558218293E+08, 1.976609291022655E+07,
2460672.500000000, A.D. 2024-Dec-28 00:00:00.0000, -1.872807133272808E+07, 3.465144740642967E+08, 2.098759343047808E+07,
2460679.500000000, A.D. 2025-Jan-04 00:00:00.0000, -3.026808649982874E+07, 3.462274211147912E+08, 2.218483510118136E+07,
2460686.500000000, A.D. 2025-Jan-11 00:00:00.0000, -4.177324743511616E+07, 3.455425902992424E+08, 2.335656703895587E+07,
2460693.500000000, A.D. 2025-Jan-18 00:00:00.0000, -5.323057115391350E+07, 3.444627609807785E+08, 2.450157743420497E+07,
2460700.500000000, A.D. 2025-Jan-25 00:00:00.0000, -6.462725193819284E+07, 3.429910882249528E+08, 2.561869377156231E+07,
2460707.500000000, A.D. 2025-Feb-01 00:00:00.0000, -7.595066841419475E+07, 3.411310925324436E+08, 2.670678300157450E+07,
2460714.500000000, A.D. 2025-Feb-08 00:00:00.0000, -8.718839014103912E+07, 3.388866496756645E+08, 2.776475166471012E+07,
2460721.500000000, A.D. 2025-Feb-15 00:00:00.0000, -9.832818371403791E+07, 3.362619806282133E+08, 2.879154596749882E+07,
$$EOE